start=new Date('2023-03-11T00:00:00.000Z').valueOf();
sats=[{"OBJECT_TYPE":"PAYLOAD","LAUNCH_DATE":"2023-02-12","MEAN_MOTION_DOT":"-0.00000706","BSTAR":"-0.00000193050000","OBJECT_NAME":"STARLINK-5698","TLE_LINE2":"2 55623  43.0002 196.3683 0002502 262.1894  97.8690 15.71351372  4186","FILE":"3856975","TLE_LINE1":"1 55623U 23020BG  23069.71828002 -.00000706  00000-0 -19305-5 0  9994","ELEMENT_SET_NO":"999","NORAD_CAT_ID":"55623","PERIAPSIS":"353.351","OBJECT_ID":"2023-020BG","CLASSIFICATION_TYPE":"U","MEAN_MOTION":"15.71351372","DECAY_DATE":null,"MEAN_ELEMENT_THEORY":"SGP4","APOAPSIS":"356.721","EPHEMERIS_TYPE":"0","RA_OF_ASC_NODE":"196.3683","SEMIMAJOR_AXIS":"6733.171","INCLINATION":"43.0002","RCS_SIZE":"LARGE","MEAN_ANOMALY":"97.8690","EPOCH":"2023-03-10T17:14:19.393728","GP_ID":"227820272","PERIOD":"91.641","REF_FRAME":"TEME","COUNTRY_CODE":"US","REV_AT_EPOCH":"418","ARG_OF_PERICENTER":"262.1894","TIME_SYSTEM":"UTC","ECCENTRICITY":"0.00025020","MEAN_MOTION_DDOT":"0.0000000000000","SITE":"AFETR","CENTER_NAME":"EARTH"},{"OBJECT_NAME":"STARLINK-5484","LAUNCH_DATE":"2023-02-17","OBJECT_TYPE":"PAYLOAD","BSTAR":"0.00010418000000","MEAN_MOTION_DOT":"0.00012329","MEAN_MOTION":"15.69917996","DECAY_DATE":null,"MEAN_ELEMENT_THEORY":"SGP4","CLASSIFICATION_TYPE":"U","RA_OF_ASC_NODE":"90.9557","SEMIMAJOR_AXIS":"6737.269","INCLINATION":"69.9995","APOAPSIS":"361.113","EPHEMERIS_TYPE":"0","NORAD_CAT_ID":"55628","PERIAPSIS":"357.154","TLE_LINE2":"2 55628  69.9995  90.9557 0002938 276.0365  84.0496 15.69917996  4143","FILE":"3856975","TLE_LINE1":"1 55628U 23021A   23069.75392122  .00012329  00000-0  10418-3 0  9999","ELEMENT_SET_NO":"999","OBJECT_ID":"2023-021A","EPOCH":"2023-03-10T18:05:38.793408","MEAN_ANOMALY":"84.0496","PERIOD":"91.725","REF_FRAME":"TEME","GP_ID":"227818521","RCS_SIZE":"LARGE","SITE":"AFWTR","MEAN_MOTION_DDOT":"0.0000000000000","CENTER_NAME":"EARTH","ARG_OF_PERICENTER":"276.0365","REV_AT_EPOCH":"414","COUNTRY_CODE":"US","ECCENTRICITY":"0.00029380","TIME_SYSTEM":"UTC"},{"RCS_SIZE":"LARGE","REF_FRAME":"TEME","PERIOD":"91.724","GP_ID":"227818771","EPOCH":"2023-03-10T16:34:02.554176","MEAN_ANOMALY":"91.0405","ECCENTRICITY":"0.00035350","TIME_SYSTEM":"UTC","ARG_OF_PERICENTER":"269.0385","COUNTRY_CODE":"US","REV_AT_EPOCH":"413","CENTER_NAME":"EARTH","SITE":"AFWTR","MEAN_MOTION_DDOT":"0.0000000000000","BSTAR":"0.00031035000000","MEAN_MOTION_DOT":"0.00037269","LAUNCH_DATE":"2023-02-17","OBJECT_TYPE":"PAYLOAD","OBJECT_NAME":"STARLINK-5497","OBJECT_ID":"2023-021B","PERIAPSIS":"356.739","NORAD_CAT_ID":"55629","ELEMENT_SET_NO":"999","TLE_LINE1":"1 55629U 23021B   23069.69030734  .00037269  00000-0  31035-3 0  9999","FILE":"3856975","TLE_LINE2":"2 55629  70.0007  91.1306 0003535 269.0385  91.0405 15.69922656  4130","INCLINATION":"70.0007","SEMIMAJOR_AXIS":"6737.255","RA_OF_ASC_NODE":"91.1306","EPHEMERIS_TYPE":"0","APOAPSIS":"361.502","MEAN_ELEMENT_THEORY":"SGP4","MEAN_MOTION":"15.69922656","DECAY_DATE":null,"CLASSIFICATION_TYPE":"U"},{"OBJECT_NAME":"STARLINK-5303","MEAN_MOTION_DOT":"0.00004933","BSTAR":"0.00004275700000","OBJECT_TYPE":"PAYLOAD","LAUNCH_DATE":"2023-02-17","APOAPSIS":"361.444","EPHEMERIS_TYPE":"0","RA_OF_ASC_NODE":"90.9537","SEMIMAJOR_AXIS":"6737.235","INCLINATION":"70.0001","CLASSIFICATION_TYPE":"U","MEAN_MOTION":"15.69929698","DECAY_DATE":null,"MEAN_ELEMENT_THEORY":"SGP4","OBJECT_ID":"2023-021C","TLE_LINE2":"2 55630  70.0001  90.9537 0003479 271.3125  88.7673 15.69929698  4148","TLE_LINE1":"1 55630U 23021C   23069.75381106  .00004933  00000-0  42757-4 0  9996","ELEMENT_SET_NO":"999","FILE":"3856975","NORAD_CAT_ID":"55630","PERIAPSIS":"356.756","GP_ID":"227819523","PERIOD":"91.724","REF_FRAME":"TEME","MEAN_ANOMALY":"88.7673","EPOCH":"2023-03-10T18:05:29.275584","RCS_SIZE":"LARGE","CENTER_NAME":"EARTH","MEAN_MOTION_DDOT":"0.0000000000000","SITE":"AFWTR","TIME_SYSTEM":"UTC","ECCENTRICITY":"0.00034790","REV_AT_EPOCH":"414","COUNTRY_CODE":"US","ARG_OF_PERICENTER":"271.3125"},{"COUNTRY_CODE":"US","REV_AT_EPOCH":"414","ARG_OF_PERICENTER":"270.1788","TIME_SYSTEM":"UTC","ECCENTRICITY":"0.00035600","MEAN_MOTION_DDOT":"0.0000000000000","SITE":"AFWTR","CENTER_NAME":"EARTH","RCS_SIZE":"LARGE","MEAN_ANOMALY":"89.8999","EPOCH":"2023-03-10T18:04:34.635360","GP_ID":"227820273","PERIOD":"91.724","REF_FRAME":"TEME","TLE_LINE2":"2 55631  70.0004  90.9494 0003560 270.1788  89.8999 15.69925947  4143","TLE_LINE1":"1 55631U 23021D   23069.75317865  .00002219  00000-0  20214-4 0  9997","FILE":"3856975","ELEMENT_SET_NO":"999","NORAD_CAT_ID":"55631","PERIAPSIS":"356.712","OBJECT_ID":"2023-021D","CLASSIFICATION_TYPE":"U","MEAN_MOTION":"15.69925947","DECAY_DATE":null,"MEAN_ELEMENT_THEORY":"SGP4","APOAPSIS":"361.509","EPHEMERIS_TYPE":"0","SEMIMAJOR_AXIS":"6737.246","RA_OF_ASC_NODE":"90.9494","INCLINATION":"70.0004","OBJECT_TYPE":"PAYLOAD","LAUNCH_DATE":"2023-02-17","MEAN_MOTION_DOT":"0.00002219","BSTAR":"0.00002021400000","OBJECT_NAME":"STARLINK-5558"},{"MEAN_MOTION_DOT":"0.00002585","BSTAR":"0.00002326300000","OBJECT_TYPE":"PAYLOAD","LAUNCH_DATE":"2023-02-17","OBJECT_NAME":"STARLINK-5546","OBJECT_ID":"2023-021E","TLE_LINE2":"2 55632  70.0002  90.9510 0003285 266.8000  93.2820 15.69922090  4142","TLE_LINE1":"1 55632U 23021E   23069.75360251  .00002585  00000-0  23263-4 0  9998","ELEMENT_SET_NO":"999","FILE":"3856975","NORAD_CAT_ID":"55632","PERIAPSIS":"356.909","APOAPSIS":"361.335","EPHEMERIS_TYPE":"0","SEMIMAJOR_AXIS":"6737.257","RA_OF_ASC_NODE":"90.9510","INCLINATION":"70.0002","CLASSIFICATION_TYPE":"U","MEAN_MOTION":"15.69922090","DECAY_DATE":null,"MEAN_ELEMENT_THEORY":"SGP4","RCS_SIZE":"LARGE","GP_ID":"227819021","PERIOD":"91.724","REF_FRAME":"TEME","MEAN_ANOMALY":"93.2820","EPOCH":"2023-03-10T18:05:11.256864","TIME_SYSTEM":"UTC","ECCENTRICITY":"0.00032850","COUNTRY_CODE":"US","REV_AT_EPOCH":"414","ARG_OF_PERICENTER":"266.8000","CENTER_NAME":"EARTH","MEAN_MOTION_DDOT":"0.0000000000000","SITE":"AFWTR"},{"OBJECT_NAME":"STARLINK-5498","MEAN_MOTION_DOT":"0.00003826","BSTAR":"0.00003357800000","OBJECT_TYPE":"PAYLOAD","LAUNCH_DATE":"2023-02-17","APOAPSIS":"361.579","EPHEMERIS_TYPE":"0","SEMIMAJOR_AXIS":"6737.261","RA_OF_ASC_NODE":"90.9510","INCLINATION":"70.0002","CLASSIFICATION_TYPE":"U","DECAY_DATE":null,"MEAN_MOTION":"15.69920561","MEAN_ELEMENT_THEORY":"SGP4","OBJECT_ID":"2023-021F","TLE_LINE2":"2 55633  70.0002  90.9510 0003641 261.6751  98.4032 15.69920561  4148","ELEMENT_SET_NO":"999","TLE_LINE1":"1 55633U 23021F   23069.75349649  .00003826  00000-0  33578-4 0  9996","FILE":"3856975","NORAD_CAT_ID":"55633","PERIAPSIS":"356.673","GP_ID":"227819271","PERIOD":"91.724","REF_FRAME":"TEME","MEAN_ANOMALY":"98.4032","EPOCH":"2023-03-10T18:05:02.096736","RCS_SIZE":"LARGE","CENTER_NAME":"EARTH","MEAN_MOTION_DDOT":"0.0000000000000","SITE":"AFWTR","TIME_SYSTEM":"UTC","ECCENTRICITY":"0.00036410","COUNTRY_CODE":"US","REV_AT_EPOCH":"414","ARG_OF_PERICENTER":"261.6751"},{"INCLINATION":"70.0002","RA_OF_ASC_NODE":"90.9511","SEMIMAJOR_AXIS":"6737.261","EPHEMERIS_TYPE":"0","APOAPSIS":"361.378","MEAN_ELEMENT_THEORY":"SGP4","MEAN_MOTION":"15.69920675","DECAY_DATE":null,"CLASSIFICATION_TYPE":"U","OBJECT_ID":"2023-021G","PERIAPSIS":"356.874","NORAD_CAT_ID":"55634","TLE_LINE1":"1 55634U 23021G   23069.75370860  .00000385  00000-0  49697-5 0  9993","FILE":"3856975","ELEMENT_SET_NO":"999","TLE_LINE2":"2 55634  70.0002  90.9511 0003342 266.9206  93.1607 15.69920675  4147","OBJECT_NAME":"STARLINK-5500","BSTAR":"0.00000496970000","MEAN_MOTION_DOT":"0.00000385","LAUNCH_DATE":"2023-02-17","OBJECT_TYPE":"PAYLOAD","CENTER_NAME":"EARTH","SITE":"AFWTR","MEAN_MOTION_DDOT":"0.0000000000000","ECCENTRICITY":"0.00033420","TIME_SYSTEM":"UTC","ARG_OF_PERICENTER":"266.9206","COUNTRY_CODE":"US","REV_AT_EPOCH":"414","REF_FRAME":"TEME","PERIOD":"91.724","GP_ID":"227820023","EPOCH":"2023-03-10T18:05:20.423040","MEAN_ANOMALY":"93.1607","RCS_SIZE":"LARGE"},{"RCS_SIZE":"LARGE","PERIOD":"91.724","REF_FRAME":"TEME","GP_ID":"227819774","EPOCH":"2023-03-10T18:03:58.308480","MEAN_ANOMALY":"94.4763","ECCENTRICITY":"0.00035070","TIME_SYSTEM":"UTC","ARG_OF_PERICENTER":"265.6032","COUNTRY_CODE":"US","REV_AT_EPOCH":"414","CENTER_NAME":"EARTH","SITE":"AFWTR","MEAN_MOTION_DDOT":"0.0000000000000","BSTAR":"-0.00000219460000","MEAN_MOTION_DOT":"-0.00000477","LAUNCH_DATE":"2023-02-17","OBJECT_TYPE":"PAYLOAD","OBJECT_NAME":"STARLINK-5495","OBJECT_ID":"2023-021H","NORAD_CAT_ID":"55635","PERIAPSIS":"356.757","TLE_LINE2":"2 55635  70.0001  90.9469 0003507 265.6032  94.4763 15.69922922  4149","FILE":"3856975","TLE_LINE1":"1 55635U 23021H   23069.75275820 -.00000477  00000-0 -21946-5 0  9995","ELEMENT_SET_NO":"999","SEMIMAJOR_AXIS":"6737.255","RA_OF_ASC_NODE":"90.9469","INCLINATION":"70.0001","APOAPSIS":"361.482","EPHEMERIS_TYPE":"0","DECAY_DATE":null,"MEAN_MOTION":"15.69922922","MEAN_ELEMENT_THEORY":"SGP4","CLASSIFICATION_TYPE":"U"},{"SITE":"AFWTR","MEAN_MOTION_DDOT":"0.0000000000000","CENTER_NAME":"EARTH","ARG_OF_PERICENTER":"267.8076","REV_AT_EPOCH":"414","COUNTRY_CODE":"US","ECCENTRICITY":"0.00035770","TIME_SYSTEM":"UTC","EPOCH":"2023-03-10T18:04:44.004576","MEAN_ANOMALY":"92.2710","REF_FRAME":"TEME","PERIOD":"91.724","GP_ID":"227818522","RCS_SIZE":"LARGE","MEAN_ELEMENT_THEORY":"SGP4","MEAN_MOTION":"15.69922442","DECAY_DATE":null,"CLASSIFICATION_TYPE":"U","INCLINATION":"70.0004","SEMIMAJOR_AXIS":"6737.256","RA_OF_ASC_NODE":"90.9491","EPHEMERIS_TYPE":"0","APOAPSIS":"361.531","PERIAPSIS":"356.711","NORAD_CAT_ID":"55636","ELEMENT_SET_NO":"999","TLE_LINE1":"1 55636U 23021J   23069.75328709  .00023156  00000-0  19382-3 0  9997","FILE":"3856975","TLE_LINE2":"2 55636  70.0004  90.9491 0003577 267.8076  92.2710 15.69922442  4142","OBJECT_ID":"2023-021J","OBJECT_NAME":"STARLINK-5218","LAUNCH_DATE":"2023-02-17","OBJECT_TYPE":"PAYLOAD","BSTAR":"0.00019382000000","MEAN_MOTION_DOT":"0.00023156"}];
